{"type": "FeatureCollection", "features": [ {"type": "Feature", "properties": {"norad_id": 39620, "name": "COSMOS 2492 (754)", "group": "gnss", "lat": -55.45143076837996, "lon": -81.55041927466887, "alt_km": 19101.234863304224, "timestamp": "2025-12-16T05:49:09.456799+00:00", "meta": {"OBJECT_NAME": "COSMOS 2492 (754)", "OBJECT_ID": "2014-012A", "EPOCH": "2025-12-15T20:35:02.650848", "MEAN_MOTION": 2.13103255, "ECCENTRICITY": 0.00142146, "INCLINATION": 65.4057, "RA_OF_ASC_NODE": 320.1641, "ARG_OF_PERICENTER": 312.2787, "MEAN_ANOMALY": 47.5956, "EPHEMERIS_TYPE": 0, "CLASSIFICATION_TYPE": "U", "NORAD_CAT_ID": 39620, "ELEMENT_SET_NO": 999, "REV_AT_EPOCH": 9133, "BSTAR": 0, "MEAN_MOTION_DOT": -6.8e-07, "MEAN_MOTION_DDOT": 0}, "tle": {"line1": "1 39620U 14012A   25349.85766957 -.00000068  00000+0  00000+0 0  9997", "line2": "2 39620  65.4057 320.1641 0014214 312.2787  47.5956  2.13103255 91332"}}, "geometry": {"type": "Point", "coordinates": [-81.55041927466887, -55.45143076837996]}}, {"type": "Feature", "properties": {"norad_id": 39635, "name": "IRNSS-1B", "group": "gnss", "lat": -7.464695605983314, "lon": -129.94638365089736, "alt_km": 35818.70520876668, "timestamp": "2025-12-16T05:49:09.456813+00:00", "meta": {"OBJECT_NAME": "IRNSS-1B", "OBJECT_ID": "2014-017A", "EPOCH": "2025-12-11T18:54:44.030304", "MEAN_MOTION": 1.00285038, "ECCENTRICITY": 0.00181492, "INCLINATION": 29.2271, "RA_OF_ASC_NODE": 243.6214, "ARG_OF_PERICENTER": 227.0185, "MEAN_ANOMALY": 309.1991, "EPHEMERIS_TYPE": 0, "CLASSIFICATION_TYPE": "U", "NORAD_CAT_ID": 39635, "ELEMENT_SET_NO": 999, "REV_AT_EPOCH": 4291, "BSTAR": 0, "MEAN_MOTION_DOT": 1.07e-06, "MEAN_MOTION_DDOT": 0}, "tle": {"line1": "1 39635U 14017A   25345.78800961  .00000107  00000+0  00000+0 0  9993", "line2": "2 39635  29.2271 243.6214 0018149 227.0185 309.1991  1.00285038 42916"}}, "geometry": {"type": "Point", "coordinates": [-129.94638365089736, -7.464695605983314]}}, {"type": "Feature", "properties": {"norad_id": 39727, "name": "LUCH 5V (SDCM/PRN 141)", "group": "gnss", "lat": -1.2807705458612202, "lon": -92.93307502914458, "alt_km": 35769.22211177329, "timestamp": "2025-12-16T05:49:09.456825+00:00", "meta": {"OBJECT_NAME": "LUCH 5V (SDCM/PRN 141)", "OBJECT_ID": "2014-023A", "EPOCH": "2025-12-15T18:58:29.535168", "MEAN_MOTION": 1.00268411, "ECCENTRICITY": 0.00043859, "INCLINATION": 4.677, "RA_OF_ASC_NODE": 71.5106, "ARG_OF_PERICENTER": 209.4827, "MEAN_ANOMALY": 183.0334, "EPHEMERIS_TYPE": 0, "CLASSIFICATION_TYPE": "U", "NORAD_CAT_ID": 39727, "ELEMENT_SET_NO": 999, "REV_AT_EPOCH": 4252, "BSTAR": 0, "MEAN_MOTION_DOT": -2.49e-06, "MEAN_MOTION_DDOT": 0}, "tle": {"line1": "1 39727U 14023A   25349.79061962 -.00000249  00000+0  00000+0 0  9995", "line2": "2 39727   4.6770  71.5106 0004385 209.4827 183.0334  1.00268411 42524"}}, "geometry": {"type": "Point", "coordinates": [-92.93307502914458, -1.2807705458612202]}}, {"type": "Feature", "properties": {"norad_id": 39741, "name": "GPS BIIF-6  (PRN 06)", "group": "gnss", "lat": -5.05303365700786, "lon": 161.9801927439991, "alt_km": 20253.904095988455, "timestamp": "2025-12-16T05:49:09.456837+00:00", "meta": {"OBJECT_NAME": "GPS BIIF-6  (PRN 06)", "OBJECT_ID": "2014-026A", "EPOCH": "2025-12-15T11:38:58.689600", "MEAN_MOTION": 2.00561238, "ECCENTRICITY": 0.00392615, "INCLINATION": 56.5825, "RA_OF_ASC_NODE": 338.6695, "ARG_OF_PERICENTER": 318.8449, "MEAN_ANOMALY": 40.8708, "EPHEMERIS_TYPE": 0, "CLASSIFICATION_TYPE": "U", "NORAD_CAT_ID": 39741, "ELEMENT_SET_NO": 999, "REV_AT_EPOCH": 8485, "BSTAR": 0, "MEAN_MOTION_DOT": -8.7e-07, "MEAN_MOTION_DDOT": 0}, "tle": {"line1": "1 39741U 14026A   25349.48540150 -.00000087  00000+0  00000+0 0  9991", "line2": "2 39741  56.5825 338.6695 0039261 318.8449  40.8708  2.00561238 84854"}}, "geometry": {"type": "Point", "coordinates": [161.9801927439991, -5.05303365700786]}}, {"type": "Feature", "properties": {"norad_id": 40001, "name": "COSMOS 2500 (755)", "group": "gnss", "lat": 15.355295945040975, "lon": 132.6545266618138, "alt_km": 19116.501870361597, "timestamp": "2025-12-16T05:49:09.456848+00:00", "meta": {"OBJECT_NAME": "COSMOS 2500 (755)", "OBJECT_ID": "2014-032A", "EPOCH": "2025-12-15T13:27:13.709376", "MEAN_MOTION": 2.1310598, "ECCENTRICITY": 0.00081492, "INCLINATION": 65.3414, "RA_OF_ASC_NODE": 319.9362, "ARG_OF_PERICENTER": 219.0671, "MEAN_ANOMALY": 140.8696, "EPHEMERIS_TYPE": 0, "CLASSIFICATION_TYPE": "U", "NORAD_CAT_ID": 40001, "ELEMENT_SET_NO": 999, "REV_AT_EPOCH": 8954, "BSTAR": 0, "MEAN_MOTION_DOT": -6.8e-07, "MEAN_MOTION_DDOT": 0}, "tle": {"line1": "1 40001U 14032A   25349.56057534 -.00000068  00000+0  00000+0 0  9996", "line2": "2 40001  65.3414 319.9362 0008149 219.0671 140.8696  2.13105980 89540"}}, "geometry": {"type": "Point", "coordinates": [132.6545266618138, 15.355295945040975]}}, {"type": "Feature", "properties": {"norad_id": 40105, "name": "GPS BIIF-7  (PRN 09)", "group": "gnss", "lat": 42.9399724188465, "lon": -124.46310022264227, "alt_km": 20089.654843654756, "timestamp": "2025-12-16T05:49:09.456859+00:00", "meta": {"OBJECT_NAME": "GPS BIIF-7  (PRN 09)", "OBJECT_ID": "2014-045A", "EPOCH": "2025-12-12T01:59:18.865536", "MEAN_MOTION": 2.00572516, "ECCENTRICITY": 0.00326941, "INCLINATION": 55.2287, "RA_OF_ASC_NODE": 95.9251, "ARG_OF_PERICENTER": 119.8618, "MEAN_ANOMALY": 240.4523, "EPHEMERIS_TYPE": 0, "CLASSIFICATION_TYPE": "U", "NORAD_CAT_ID": 40105, "ELEMENT_SET_NO": 999, "REV_AT_EPOCH": 8232, "BSTAR": 0, "MEAN_MOTION_DOT": -9e-08, "MEAN_MOTION_DDOT": 0}, "tle": {"line1": "1 40105U 14045A   25346.08285724 -.00000009  00000+0  00000+0 0  9998", "line2": "2 40105  55.2287  95.9251 0032694 119.8618 240.4523  2.00572516 82323"}}, "geometry": {"type": "Point", "coordinates": [-124.46310022264227, 42.9399724188465]}}, {"type": "Feature", "properties": {"norad_id": 40128, "name": "GSAT0201 (GALILEO 5)", "group": "gnss", "lat": 29.957934907094124, "lon": -49.140748801265744, "alt_km": 24135.450446714465, "timestamp": "2025-12-16T05:49:09.456870+00:00", "meta": {"OBJECT_NAME": "GSAT0201 (GALILEO 5)", "OBJECT_ID": "2014-050A", "EPOCH": "2025-12-14T00:08:14.916480", "MEAN_MOTION": 1.85519648, "ECCENTRICITY": 0.16480052, "INCLINATION": 49.0753, "RA_OF_ASC_NODE": 281.012, "ARG_OF_PERICENTER": 172.3262, "MEAN_ANOMALY": 190.5827, "EPHEMERIS_TYPE": 0, "CLASSIFICATION_TYPE": "U", "NORAD_CAT_ID": 40128, "ELEMENT_SET_NO": 999, "REV_AT_EPOCH": 7488, "BSTAR": 0, "MEAN_MOTION_DOT": -9.9e-07, "MEAN_MOTION_DDOT": 0}, "tle": {"line1": "1 40128U 14050A   25348.00572820 -.00000099  00000+0  00000+0 0  9998", "line2": "2 40128  49.0753 281.0120 1648005 172.3262 190.5827  1.85519648 74882"}}, "geometry": {"type": "Point", "coordinates": [-49.140748801265744, 29.957934907094124]}}, {"type": "Feature", "properties": {"norad_id": 40129, "name": "GSAT0202 (GALILEO 6)", "group": "gnss", "lat": -48.78688527435459, "lon": -178.65870446032312, "alt_km": 20938.482691138408, "timestamp": "2025-12-16T05:49:09.456881+00:00", "meta": {"OBJECT_NAME": "GSAT0202 (GALILEO 6)", "OBJECT_ID": "2014-050B", "EPOCH": "2025-12-14T06:17:14.023104", "MEAN_MOTION": 1.85520414, "ECCENTRICITY": 0.16487132, "INCLINATION": 49.0906, "RA_OF_ASC_NODE": 280.0852, "ARG_OF_PERICENTER": 173.0839, "MEAN_ANOMALY": 189.5459, "EPHEMERIS_TYPE": 0, "CLASSIFICATION_TYPE": "U", "NORAD_CAT_ID": 40129, "ELEMENT_SET_NO": 999, "REV_AT_EPOCH": 7705, "BSTAR": 0, "MEAN_MOTION_DOT": -9.7e-07, "MEAN_MOTION_DDOT": 0}, "tle": {"line1": "1 40129U 14050B   25348.26196786 -.00000097  00000+0  00000+0 0  9998", "line2": "2 40129  49.0906 280.0852 1648713 173.0839 189.5459  1.85520414 77052"}}, "geometry": {"type": "Point", "coordinates": [-178.65870446032312, -48.78688527435459]}}, {"type": "Feature", "properties": {"norad_id": 40269, "name": "IRNSS-1C", "group": "gnss", "lat": 1.751654601582989, "lon": -104.47112347153602, "alt_km": 35857.7263452191, "timestamp": "2025-12-16T05:49:09.456892+00:00", "meta": {"OBJECT_NAME": "IRNSS-1C", "OBJECT_ID": "2014-061A", "EPOCH": "2025-12-15T21:11:51.423648", "MEAN_MOTION": 1.00274689, "ECCENTRICITY": 0.00181129, "INCLINATION": 6.0492, "RA_OF_ASC_NODE": 92.5594, "ARG_OF_PERICENTER": 1.6311, "MEAN_ANOMALY": 31.5004, "EPHEMERIS_TYPE": 0, "CLASSIFICATION_TYPE": "U", "NORAD_CAT_ID": 40269, "ELEMENT_SET_NO": 999, "REV_AT_EPOCH": 4085, "BSTAR": 0, "MEAN_MOTION_DOT": -1.43e-06, "MEAN_MOTION_DDOT": 0}, "tle": {"line1": "1 40269U 14061A   25349.88323407 -.00000143  00000+0  00000+0 0  9998", "line2": "2 40269   6.0492  92.5594 0018112   1.6311  31.5004  1.00274689 40850"}}, "geometry": {"type": "Point", "coordinates": [-104.47112347153602, 1.751654601582989]}}, {"type": "Feature", "properties": {"norad_id": 40294, "name": "GPS BIIF-8  (PRN 03)", "group": "gnss", "lat": -26.95885463370153, "lon": -122.58154448808301, "alt_km": 20315.58034200064, "timestamp": "2025-12-16T05:49:09.456904+00:00", "meta": {"OBJECT_NAME": "GPS BIIF-8  (PRN 03)", "OBJECT_ID": "2014-068A", "EPOCH": "2025-12-15T10:49:04.415520", "MEAN_MOTION": 2.0056507, "ECCENTRICITY": 0.00607763, "INCLINATION": 56.8599, "RA_OF_ASC_NODE": 38.0411, "ARG_OF_PERICENTER": 69.1257, "MEAN_ANOMALY": 291.5793, "EPHEMERIS_TYPE": 0, "CLASSIFICATION_TYPE": "U", "NORAD_CAT_ID": 40294, "ELEMENT_SET_NO": 999, "REV_AT_EPOCH": 8152, "BSTAR": 0, "MEAN_MOTION_DOT": -8.8e-07, "MEAN_MOTION_DDOT": 0}, "tle": {"line1": "1 40294U 14068A   25349.45074555 -.00000088  00000+0  00000+0 0  9991", "line2": "2 40294  56.8599  38.0411 0060776  69.1257 291.5793  2.00565070 81523"}}, "geometry": {"type": "Point", "coordinates": [-122.58154448808301, -26.95885463370153]}}]}